[{"OBJECT_NAME":"STARLINK-3274","OBJECT_ID":"2021-125AG","EPOCH":"2026-03-09T19:40:10.913664","MEAN_MOTION":15.08836755,"ECCENTRICITY":0.0001207,"INCLINATION":53.2159,"RA_OF_ASC_NODE":258.5414,"ARG_OF_PERICENTER":87.4837,"MEAN_ANOMALY":272.6293,"EPHEMERIS_TYPE":0,"CLASSIFICATION_TYPE":"U","NORAD_CAT_ID":50186,"ELEMENT_SET_NO":999,"REV_AT_EPOCH":23647,"BSTAR":-1.5153508e-5,"MEAN_MOTION_DOT":-5.29e-6,"MEAN_MOTION_DDOT":0},{"OBJECT_NAME":"FENGYUN 1C DEB","OBJECT_ID":"1999-025AVL","EPOCH":"2026-03-06T12:53:29.086080","MEAN_MOTION":14.83381217,"ECCENTRICITY":0.01434433,"INCLINATION":98.8652,"RA_OF_ASC_NODE":274.6705,"ARG_OF_PERICENTER":90.518,"MEAN_ANOMALY":301.133,"EPHEMERIS_TYPE":0,"CLASSIFICATION_TYPE":"U","NORAD_CAT_ID":30826,"ELEMENT_SET_NO":999,"REV_AT_EPOCH":1528,"BSTAR":0.00060190522,"MEAN_MOTION_DOT":5.85e-5,"MEAN_MOTION_DDOT":0}]
